ONEWEB-0403             
1 50483U 21132Q   26129.11782486  .00000134  00000+0  30679-3 0  9991
2 50483  87.9186 343.2283 0001829  89.8120 270.3222 13.18686040216446
ONEWEB-0404             
1 50484U 21132R   26129.19125144 -.00000040  00000+0 -14889-3 0  9995
2 50484  87.8914  28.8224 0001798  89.9158 270.2176 13.11416862210585
ONEWEB-0405             
1 50485U 21132S   26129.13129162 -.00000019  00000+0 -81712-4 0  9990
2 50485  87.9190 343.2094 0001345  84.0911 276.0375 13.18684432216840
ONEWEB-0406             
1 50486U 21132T   26129.12289848  .00003306  00000+0  83519-2 0  9993
2 50486  87.9176 343.2303 0001942 101.9474 258.1876 13.18671548216474
ONEWEB-0407             
1 50487U 21132U   26129.11616100 -.00000007  00000+0 -50459-4 0  9994
2 50487  87.9186 343.2217 0001849  79.2164 280.9176 13.18693460216416
ONEWEB-0409             
1 50488U 21132V   26129.18956235  .00000156  00000+0  40298-3 0  9990
2 50488  87.8924  28.8088 0001717  88.5977 271.5347 13.11413558210474
ONEWEB-0412             
1 50489U 21132W   26129.10434303  .00000145  00000+0  33492-3 0  9996
2 50489  87.9179 343.2338 0002105  81.7869 278.3502 13.18686800216504
ONEWEB-0413             
1 50490U 21132X   26129.10939780  .00000153  00000+0  35540-3 0  9992
2 50490  87.9175 343.2343 0001999  78.9289 281.2068 13.18685944216443
ONEWEB-0414             
1 50491U 21132Y   26129.09421431  .00000011  00000+0 -41676-5 0  9993
2 50491  87.9188 343.2151 0001995  86.3630 273.7730 13.18686165216475
ONEWEB-0417             
1 50492U 21132Z   26129.10266056  .00000066  00000+0  13585-3 0  9991
2 50492  87.9177 343.2364 0001798  92.8108 267.3230 13.18686882216451
ONEWEB-0418             
1 50493U 21132AA  26129.11264443 -.00000074  00000+0 -22116-3 0  9992
2 50493  87.9190 343.2304 0001802  96.9168 263.2169 13.18687555216519
ONEWEB-0419             
1 50494U 21132AB  26129.13058641  .00000039  00000+0  65941-4 0  9999
2 50494  87.9187 343.2266 0001614  91.2115 268.9202 13.18663729216432
ONEWEB-0420             
1 50495U 21132AC  26129.09589799  .00000067  00000+0  13608-3 0  9991
2 50495  87.9179 343.2398 0001764  78.5062 281.6268 13.18686254216426
ONEWEB-0421             
1 50496U 21132AD  26129.08914191  .00000097  00000+0  21453-3 0  9999
2 50496  87.9183 343.2369 0002200  87.2030 272.9354 13.18684544216461
ONEWEB-0424             
1 50497U 21132AE  26129.12626947 -.00000028  00000+0 -10466-3 0  9992
2 50497  87.9186 343.2266 0001457  89.1474 270.9825 13.18687086216495
ONEWEB-0426             
1 50498U 21132AF  26129.08533438  .00000069  00000+0  14194-3 0  9995
2 50498  87.9188 343.2258 0002353  99.3770 260.7628 13.18772158216434
